#dP2022  5  3  0  0  0.00000000      96 __u+U ITR00 EXT  IAC
## 2208 172800.00000000   900.00000000 59702 0.0000000000000
+  116   C06C07C08C09C10C11C12C13C14C16C19C20C21C22C23C24C25
+        C26C27C28C29C30C32C33C34C35C36C37C38C39C40C41C42C43
+        C44C45C46E02E03E04E05E07E08E09E10E11E12E13E14E15E18
+        E19E21E24E25E26E27E30E31E33E34E36G01G02G03G04G05G06
+        G07G08G09G10G11G12G13G14G15G16G17G18G19G20G21G22G23
+        G24G25G26G27G28G29G30G31G32J02J03R01R02R03R04R05R07
+        R08R09R11R12R13R14R15R17R18R19R20R21R22R24  0  0  0
++         0  0  0  0  0  0  0  0  0  0  0  0  0  0  0  0  0
++         0  0  0  0  0  0  0  0  0  0  0  0  0  0  0  0  0
++         0  0  0  0  0  0  0  0  0  0  0  0  0  0  0  0  0
++         0  0  0  0  0  0  0  0  0  0  0  0  0  0  0  0  0
++         0  0  0  0  0  0  0  0  0  0  0  0  0  0  0  0  0
++         0  0  0  0  0  0  0  0  0  0  0  0  0  0  0  0  0
++         0  0  0  0  0  0  0  0  0  0  0  0  0  0  0  0  0
%c M  cc GPS ccc cccc cccc cccc cccc ccccc ccccc ccccc ccccc
%c cc cc ccc ccc cccc cccc cccc cccc ccccc ccccc ccccc ccccc
%f  0.0000000  0.000000000  0.00000000000  0.000000000000000
%f  0.0000000  0.000000000  0.00000000000  0.000000000000000
%i    0    0    0    0      0      0      0      0         0
%i    0    0    0    0      0      0      0      0         0
/* IAC                                ULTRA-RAPID PREDICTION
/* S/V CLOCKS ARE ALIGNED TO GNSS TIME                      
/* G:C1WC2W R:C1PC2P E:C1XC5X C:C2IC6I J:C1CC2S             
/* PCV:IGS14_2196 OL/AL:FES2004  NONE     YN ORB:CoN CLK:CoN
*  2022 05 03 21 30  0.00000000
PC06 -14363.712509  24537.762961  31095.289741    -86.065244
PC07 -12552.029450  40328.753292   1184.867560   -120.207929
PC08    501.855402  28476.662281 -31033.949746    293.808934
PC09  -3657.140323  24833.233444  34188.738989   -754.215715
PC10  -6649.462688  41475.453374  -5729.528443    133.895983
PC11  23585.009359   5402.035853 -13821.914112    330.242165
PC12   6985.531116  14158.565357 -22979.065075   -621.225327
PC13   7564.924336  32712.464656 -25197.068101    -43.039508
PC14  13722.656199   8523.667018  22786.409134    467.499131
PC16 -17346.523859  23805.168829  30250.550674    127.305872
PC19 -16901.206469   2605.155616 -22025.545052    873.039064
PC20  -9296.438003 -16384.947160 -20555.868004   -900.816300
PC21  -4449.995692  26765.116330   6610.513983   -225.531742
PC22 -15087.492978  20859.150757 -10804.627574   -973.227290
PC23  12490.308168 -10436.184867 -22664.310240   -930.390677
PC24  17682.814104  21556.432313    838.550578   -959.911570
PC25  21654.138743   6568.496462 -16325.722902   -741.894250
PC26   5162.807616  22491.897378  15656.136757    742.925069
PC27   3337.030766 -16307.722308  22377.174855    717.611681
PC28  21472.428799 -12624.311489  12581.679284     62.580277
PC29 -27330.407523   2262.510339   5141.225376    549.809372
PC30 -16721.120781 -10413.930609  19746.061770    497.939630
PC32   4296.726291 -26778.741654  -6515.575661   -962.675105
PC33  16902.664765  -2540.046430  22065.684139   -965.910511
PC34  17669.108791   9921.632744 -19211.825200   -411.582845
PC35 -21686.926461  13011.778271 -11766.311726    257.556302
PC36 -21605.268441  -7565.809303  15983.758129   -963.841710
PC37  -3634.539388 -22258.579219 -16433.054582   -915.773630
PC38  -7243.339226  25073.195826 -33056.309709    229.593814
PC39 -23001.277934  23618.503151  26220.038757     34.964539
PC40 -18617.718877  37703.691464   4168.618657    266.069873
PC41  15237.708617 -20505.219279  11279.699484   -965.842279
PC42   8738.791455  17342.413622  20098.439075   -961.971101
PC43  27262.967277  -1645.735162  -5804.456968   -926.236557
PC44  -2896.201097  16573.656232 -22272.458398    648.030170
PC45 -12193.893123  10599.314493  22754.198820    747.674013
PC46 -18482.716716 -20924.948026    603.536689   -305.392787
PE02  -8576.497264 -27984.870864   4462.467557    296.857949
PE03  -3982.899982 -18162.245824 -23023.082213   -554.544210
PE04  20024.402803   2729.274744  21639.244454  -1020.144306
PE05  14743.169842 -23236.522224 -10889.771662   -184.986197
PE07 -24596.998900  14735.556546  -7362.446651   -664.906465
PE08 -20127.940841  -2267.975875 -21581.148444   -522.976280
PE09  24494.758067 -14919.706216   7296.759929   -505.879487
PE10  28295.491354   4032.817628   7697.163267   -510.693022
PE11  24262.394505  -3323.367749  16631.526614   3777.230425
PE12  27619.646951  10505.878892  -1945.778602   4631.662404
PE13 -24624.787312   2870.025707 -16163.254811    428.443550
PE14   5431.217127 -17459.184738  14649.145976  -1836.227147
PE15 -27586.348454 -10506.943067   2101.264449    747.857013
PE18  -5155.273580  23752.049625 -21626.136683  -1491.088301
PE19   1457.235074  19424.527997  22299.714009  -4063.835179
PE21  -3772.509521  26320.247416  13001.266219   -732.100393
PE24  15199.323063  -8069.918674 -24102.359567   -595.275037
PE25   3953.753186 -26186.582991 -13224.616074   -572.649987
PE26  -6254.291973  14990.082840 -24745.165783  -1102.948599
PE27 -14696.696105   9419.292056  23903.472251   -290.540930
PE30 -16681.871706 -13968.539366  20063.324131   -481.388920
PE31  16870.131078  12862.160686 -20638.030152   -496.057566
PE33  14280.709764  17621.175831 -19026.360443   -456.999371
PE34 -14499.754373 -17570.046572  18891.334312   -515.246029
PE36   7248.400220 -14451.722506  24794.708017   -368.555223
PG01  22028.114481  14465.716450  -4893.644162    370.907489
PG02  -4057.161119 -16894.604515  20703.173716   -653.274320
PG03  12569.882486  16538.727411  16509.511217   -231.037489
PG04  15657.933685   6879.932572  20352.114144   -170.536749
PG05  -5696.145558 -25616.346775  -3694.612184    -80.553667
PG06  12168.885767  -9895.276174  21512.334075    289.776526
PG07  24472.383961   4131.803444  -9719.729719    321.613502
PG08   7304.924061  13378.799896 -21771.529145    -66.511823
PG09  22085.659336  -3311.790400  14333.750838   -339.399659
PG10 -11899.570547  13787.690357 -19078.945915   -401.194718
PG11  -3153.593114 -17419.516485  19800.820252    -29.854864
PG12  -9554.240341 -20536.629280  13697.036442   -209.945542
PG13   2912.217796 -17064.700310 -20245.663009    305.187763
PG14  13251.406396 -12446.396200 -19337.541632   -106.460420
PG15  -9866.721080 -12722.854666 -21527.192674    -64.062870
PG16   -465.398884  26297.718114    261.990721   -497.652347
PG17  22250.983704 -14510.147801   1491.250029    608.227173
PG18 -24234.161196  -4478.845578 -10052.081965    179.564366
PG19  19157.685418 -16351.282455   7834.004051    152.609953
PG20   -676.169422 -25641.946460   7340.481743    515.534463
PG21  16394.354886  16148.154225 -13184.752084    160.891901
PG22 -16279.776696  18063.119344  10878.677374    253.340268
PG23 -14942.232079   1842.131653 -21890.284744    -19.453585
PG24 -20385.399274 -14979.460476  -9048.153121    247.192663
PG25 -15105.223980  -6743.698141  20548.155655    320.111774
PG26  -5666.027533  22893.536374  11820.973791    203.128880
PG27  -5415.892122  18706.323747 -18086.114644    196.486988
PG28   9465.175448 -20717.652928 -13337.937421    363.680561
PG29 -21911.547247   1160.162452  14960.396336   -509.850023
PG30  20140.885571  -3881.158157 -16927.489378   -526.462988
PG31 -10388.786905  11686.209233  21386.260505   -176.107894
PG32 -20366.464510  16669.659514   2841.730268   -119.029453
PJ02 -25355.175456  26027.514502  26247.954103     -3.215531
PJ03 -33295.530674  17521.200864 -14367.326750     -1.919832
PR01   6412.722058 -22382.170397 -10394.451007      8.366018
PR02  -6321.656800 -10198.337789 -22469.002774    517.334823
PR03 -14705.194500   7037.335603 -19549.370936     56.019624
PR04 -14686.148374  20020.481580  -5797.153124    139.772999
PR05  -6688.019807  21931.675437  11173.347124     92.249093
PR07  14947.902821  -7748.684837  19223.639184     34.635513
PR08  14668.529982 -20080.110693   5798.093549    -64.951888
PR09  15494.981382  19277.091708  -6384.434950     53.135183
PR11   6038.749149 -10503.178135 -22436.189384     39.828938
PR12  -6764.024506 -21902.408244 -11185.103678     18.256192
PR13 -15013.757149 -19955.566389   5183.056398    -21.794440
PR14 -14682.849420  -5643.490894  20084.408338     77.206117
PR15  -5715.965434  11242.103288  22190.014188     96.392044
PR17 -25525.342602     52.628206   -143.494106    522.928438
PR18 -18701.200761   6956.626058 -15846.056405    115.643127
PR19  -3656.946617  10134.428130 -23125.333653   -187.707182
PR20  17510.101427   8055.110012 -16732.501659    -69.858961
PR21  25436.157654   -602.946325   1661.609440   -298.366734
PR22  18208.411909  -7071.847769  16446.317950   -180.882771
PR24 -18212.727129  -7751.459421  16105.935577     92.025824
EOF
